start=new Date('2023-02-27T00:00:00.000Z').valueOf();
sats=[{"SITE":"AFETR","ARG_OF_PERICENTER":"106.1947","RA_OF_ASC_NODE":"306.3122","ELEMENT_SET_NO":"999","INCLINATION":"53.2164","MEAN_ANOMALY":"253.9206","GP_ID":"227007328","MEAN_MOTION":"15.08842143","ECCENTRICITY":"0.00014650","COUNTRY_CODE":"US","OBJECT_NAME":"STARLINK-4200","MEAN_MOTION_DOT":"0.00011122","PERIAPSIS":"538.725","EPHEMERIS_TYPE":"0","PERIOD":"95.437","REV_AT_EPOCH":"3885","EPOCH":"2023-02-26T02:13:40.738368","SEMIMAJOR_AXIS":"6917.874","RCS_SIZE":"LARGE","REF_FRAME":"TEME","OBJECT_ID":"2022-062AY","TIME_SYSTEM":"UTC","MEAN_ELEMENT_THEORY":"SGP4","NORAD_CAT_ID":"52876","FILE":"3841853","MEAN_MOTION_DDOT":"0.0000000000000","TLE_LINE2":"2 52876  53.2164 306.3122 0001465 106.1947 253.9206 15.08842143 38859","BSTAR":"0.00071574000000","DECAY_DATE":null,"LAUNCH_DATE":"2022-06-17","TLE_LINE1":"1 52876U 22062AY  23057.09283262  .00011122  00000-0  71574-3 0  9993","CENTER_NAME":"EARTH","OBJECT_TYPE":"PAYLOAD","CLASSIFICATION_TYPE":"U","APOAPSIS":"540.752"},{"OBJECT_TYPE":"PAYLOAD","CENTER_NAME":"EARTH","APOAPSIS":"540.063","CLASSIFICATION_TYPE":"U","LAUNCH_DATE":"2022-06-17","DECAY_DATE":null,"TLE_LINE1":"1 52877U 22062AZ  23057.12597330  .00037702  00000-0  23732-2 0  9996","TLE_LINE2":"2 52877  53.2172 306.1672 0000536  71.1884 288.9167 15.08857263 38860","BSTAR":"0.00237320000000","FILE":"3841853","MEAN_MOTION_DDOT":"0.0000000000000","OBJECT_ID":"2022-062AZ","NORAD_CAT_ID":"52877","TIME_SYSTEM":"UTC","MEAN_ELEMENT_THEORY":"SGP4","REV_AT_EPOCH":"3886","REF_FRAME":"TEME","SEMIMAJOR_AXIS":"6917.828","RCS_SIZE":"LARGE","EPOCH":"2023-02-26T03:01:24.093120","EPHEMERIS_TYPE":"0","PERIAPSIS":"539.322","PERIOD":"95.436","MEAN_MOTION":"15.08857263","GP_ID":"227008579","OBJECT_NAME":"STARLINK-4214","MEAN_MOTION_DOT":"0.00037702","ECCENTRICITY":"0.00005360","COUNTRY_CODE":"US","MEAN_ANOMALY":"288.9167","INCLINATION":"53.2172","SITE":"AFETR","RA_OF_ASC_NODE":"306.1672","ELEMENT_SET_NO":"999","ARG_OF_PERICENTER":"71.1884"},{"REF_FRAME":"TEME","RCS_SIZE":"LARGE","SEMIMAJOR_AXIS":"6917.845","EPOCH":"2023-02-26T22:37:47.112096","REV_AT_EPOCH":"3898","PERIOD":"95.437","EPHEMERIS_TYPE":"0","PERIAPSIS":"538.713","OBJECT_NAME":"STARLINK-4171","MEAN_MOTION_DOT":"0.00003835","COUNTRY_CODE":"US","ECCENTRICITY":"0.00014410","MEAN_MOTION":"15.08851566","GP_ID":"227067233","INCLINATION":"53.2161","MEAN_ANOMALY":"264.2233","ARG_OF_PERICENTER":"95.8923","SITE":"AFETR","ELEMENT_SET_NO":"999","RA_OF_ASC_NODE":"302.4977","APOAPSIS":"540.707","CLASSIFICATION_TYPE":"U","OBJECT_TYPE":"PAYLOAD","CENTER_NAME":"EARTH","TLE_LINE1":"1 52878U 22062BA  23057.94290639  .00003835  00000-0  25881-3 0  9997","LAUNCH_DATE":"2022-06-17","DECAY_DATE":null,"TLE_LINE2":"2 52878  53.2161 302.4977 0001441  95.8923 264.2233 15.08851566 38983","BSTAR":"0.00025881000000","MEAN_MOTION_DDOT":"0.0000000000000","FILE":"3843368","NORAD_CAT_ID":"52878","TIME_SYSTEM":"UTC","MEAN_ELEMENT_THEORY":"SGP4","OBJECT_ID":"2022-062BA"},{"CLASSIFICATION_TYPE":"U","APOAPSIS":"540.723","OBJECT_TYPE":"PAYLOAD","CENTER_NAME":"EARTH","TLE_LINE1":"1 52879U 22062BB  23057.64482428  .00016130  00000-0  10294-2 0  9997","LAUNCH_DATE":"2022-06-17","DECAY_DATE":null,"BSTAR":"0.00102940000000","TLE_LINE2":"2 52879  53.2158 303.8391 0001382 100.5961 259.5187 15.08832814 38941","FILE":"3843368","MEAN_MOTION_DDOT":"0.0000000000000","NORAD_CAT_ID":"52879","TIME_SYSTEM":"UTC","MEAN_ELEMENT_THEORY":"SGP4","OBJECT_ID":"2022-062BB","REF_FRAME":"TEME","EPOCH":"2023-02-26T15:28:32.817792","RCS_SIZE":"LARGE","SEMIMAJOR_AXIS":"6917.902","REV_AT_EPOCH":"3894","PERIOD":"95.438","EPHEMERIS_TYPE":"0","PERIAPSIS":"538.811","OBJECT_NAME":"STARLINK-4139","MEAN_MOTION_DOT":"0.00016130","ECCENTRICITY":"0.00013820","COUNTRY_CODE":"US","MEAN_MOTION":"15.08832814","GP_ID":"227067985","INCLINATION":"53.2158","MEAN_ANOMALY":"259.5187","SITE":"AFETR","ELEMENT_SET_NO":"999","RA_OF_ASC_NODE":"303.8391","ARG_OF_PERICENTER":"100.5961"},{"TLE_LINE2":"2 52880  53.2152 306.2033 0001371  92.1731 267.9418 15.08849348 38867","BSTAR":"0.00088413000000","FILE":"3841853","MEAN_MOTION_DDOT":"0.0000000000000","OBJECT_ID":"2022-062BC","NORAD_CAT_ID":"52880","MEAN_ELEMENT_THEORY":"SGP4","TIME_SYSTEM":"UTC","OBJECT_TYPE":"PAYLOAD","CENTER_NAME":"EARTH","CLASSIFICATION_TYPE":"U","APOAPSIS":"540.665","LAUNCH_DATE":"2022-06-17","DECAY_DATE":null,"TLE_LINE1":"1 52880U 22062BC  23057.11859126  .00013815  00000-0  88413-3 0  9990","MEAN_MOTION":"15.08849348","GP_ID":"227007828","OBJECT_NAME":"STARLINK-4186","MEAN_MOTION_DOT":"0.00013815","COUNTRY_CODE":"US","ECCENTRICITY":"0.00013710","MEAN_ANOMALY":"267.9418","INCLINATION":"53.2152","SITE":"AFETR","RA_OF_ASC_NODE":"306.2033","ELEMENT_SET_NO":"999","ARG_OF_PERICENTER":"92.1731","REV_AT_EPOCH":"3886","REF_FRAME":"TEME","EPOCH":"2023-02-26T02:50:46.284864","RCS_SIZE":"LARGE","SEMIMAJOR_AXIS":"6917.852","EPHEMERIS_TYPE":"0","PERIAPSIS":"538.768","PERIOD":"95.437"},{"REV_AT_EPOCH":"3894","REF_FRAME":"TEME","EPOCH":"2023-02-26T15:39:09.119232","RCS_SIZE":"LARGE","SEMIMAJOR_AXIS":"6917.871","EPHEMERIS_TYPE":"0","PERIAPSIS":"538.781","PERIOD":"95.437","MEAN_MOTION":"15.08842947","GP_ID":"227066483","OBJECT_NAME":"STARLINK-4192","MEAN_MOTION_DOT":"0.00004138","COUNTRY_CODE":"US","ECCENTRICITY":"0.00013810","INCLINATION":"53.2155","MEAN_ANOMALY":"266.1145","ARG_OF_PERICENTER":"94.0005","SITE":"AFETR","RA_OF_ASC_NODE":"303.8085","ELEMENT_SET_NO":"999","OBJECT_TYPE":"PAYLOAD","CENTER_NAME":"EARTH","CLASSIFICATION_TYPE":"U","APOAPSIS":"540.692","LAUNCH_DATE":"2022-06-17","DECAY_DATE":null,"TLE_LINE1":"1 52881U 22062BD  23057.65218888  .00004138  00000-0  27793-3 0  9996","BSTAR":"0.00027793000000","TLE_LINE2":"2 52881  53.2155 303.8085 0001381  94.0005 266.1145 15.08842947 38942","MEAN_MOTION_DDOT":"0.0000000000000","FILE":"3843368","OBJECT_ID":"2022-062BD","NORAD_CAT_ID":"52881","TIME_SYSTEM":"UTC","MEAN_ELEMENT_THEORY":"SGP4"},{"EPHEMERIS_TYPE":"0","PERIAPSIS":"538.843","PERIOD":"95.437","REV_AT_EPOCH":"3895","REF_FRAME":"TEME","RCS_SIZE":"LARGE","SEMIMAJOR_AXIS":"6917.838","EPOCH":"2023-02-26T16:58:38.416512","INCLINATION":"53.2155","MEAN_ANOMALY":"278.2849","ELEMENT_SET_NO":"999","SITE":"AFETR","ARG_OF_PERICENTER":"81.8284","RA_OF_ASC_NODE":"303.5601","MEAN_MOTION":"15.08853752","GP_ID":"227066733","OBJECT_NAME":"STARLINK-4181","MEAN_MOTION_DOT":"0.00009769","COUNTRY_CODE":"US","ECCENTRICITY":"0.00012440","LAUNCH_DATE":"2022-06-17","DECAY_DATE":null,"TLE_LINE1":"1 52882U 22062BE  23057.70738908  .00009769  00000-0  63081-3 0  9998","OBJECT_TYPE":"PAYLOAD","CENTER_NAME":"EARTH","APOAPSIS":"540.564","CLASSIFICATION_TYPE":"U","OBJECT_ID":"2022-062BE","NORAD_CAT_ID":"52882","MEAN_ELEMENT_THEORY":"SGP4","TIME_SYSTEM":"UTC","TLE_LINE2":"2 52882  53.2155 303.5601 0001244  81.8284 278.2849 15.08853752 38957","BSTAR":"0.00063081000000","FILE":"3843368","MEAN_MOTION_DDOT":"0.0000000000000"},{"INCLINATION":"53.2159","MEAN_ANOMALY":"253.2922","SITE":"AFETR","RA_OF_ASC_NODE":"25.3377","ELEMENT_SET_NO":"999","ARG_OF_PERICENTER":"106.8210","OBJECT_NAME":"STARLINK-4260","MEAN_MOTION_DOT":"0.00014470","COUNTRY_CODE":"US","ECCENTRICITY":"0.00012750","MEAN_MOTION":"15.08854998","GP_ID":"227008588","PERIOD":"95.437","EPHEMERIS_TYPE":"0","PERIAPSIS":"538.818","REF_FRAME":"TEME","RCS_SIZE":"LARGE","SEMIMAJOR_AXIS":"6917.835","EPOCH":"2023-02-26T07:26:19.745664","REV_AT_EPOCH":"3566","NORAD_CAT_ID":"52986","TIME_SYSTEM":"UTC","MEAN_ELEMENT_THEORY":"SGP4","OBJECT_ID":"2022-076A","TLE_LINE2":"2 52986  53.2159  25.3377 0001275 106.8210 253.2922 15.08854998 35669","BSTAR":"0.00092497000000","FILE":"3841853","MEAN_MOTION_DDOT":"0.0000000000000","TLE_LINE1":"1 52986U 22076A   23057.30995076  .00014470  00000-0  92497-3 0  9993","LAUNCH_DATE":"2022-07-07","DECAY_DATE":null,"APOAPSIS":"540.582","CLASSIFICATION_TYPE":"U","OBJECT_TYPE":"PAYLOAD","CENTER_NAME":"EARTH"},{"APOAPSIS":"540.847","CLASSIFICATION_TYPE":"U","CENTER_NAME":"EARTH","OBJECT_TYPE":"PAYLOAD","TLE_LINE1":"1 52987U 22076B   23057.41574734  .00015969  00000-0  10185-2 0  9997","DECAY_DATE":null,"LAUNCH_DATE":"2022-07-07","FILE":"3841853","MEAN_MOTION_DDOT":"0.0000000000000","BSTAR":"0.00101850000000","TLE_LINE2":"2 52987  53.2159  34.8614 0001695 109.7295 250.3880 15.08863353 35543","MEAN_ELEMENT_THEORY":"SGP4","TIME_SYSTEM":"UTC","NORAD_CAT_ID":"52987","OBJECT_ID":"2022-076B","SEMIMAJOR_AXIS":"6917.809","RCS_SIZE":"LARGE","EPOCH":"2023-02-26T09:58:40.570176","REF_FRAME":"TEME","REV_AT_EPOCH":"3554","PERIOD":"95.436","PERIAPSIS":"538.501","EPHEMERIS_TYPE":"0","ECCENTRICITY":"0.00016950","COUNTRY_CODE":"US","OBJECT_NAME":"STARLINK-4259","MEAN_MOTION_DOT":"0.00015969","GP_ID":"227008839","MEAN_MOTION":"15.08863353","RA_OF_ASC_NODE":"34.8614","SITE":"AFETR","ARG_OF_PERICENTER":"109.7295","ELEMENT_SET_NO":"999","INCLINATION":"53.2159","MEAN_ANOMALY":"250.3880"},{"TLE_LINE1":"1 52988U 22076C   23057.30626820  .00012830  00000-0  82237-3 0  9992","DECAY_DATE":null,"LAUNCH_DATE":"2022-07-07","APOAPSIS":"540.432","CLASSIFICATION_TYPE":"U","CENTER_NAME":"EARTH","OBJECT_TYPE":"PAYLOAD","MEAN_ELEMENT_THEORY":"SGP4","TIME_SYSTEM":"UTC","NORAD_CAT_ID":"52988","OBJECT_ID":"2022-076C","MEAN_MOTION_DDOT":"0.0000000000000","FILE":"3841853","BSTAR":"0.00082237000000","TLE_LINE2":"2 52988  53.2155  25.3629 0001067 102.8836 257.2275 15.08856778 35669","PERIOD":"95.436","PERIAPSIS":"538.956","EPHEMERIS_TYPE":"0","SEMIMAJOR_AXIS":"6917.829","RCS_SIZE":"LARGE","EPOCH":"2023-02-26T07:21:01.572480","REF_FRAME":"TEME","REV_AT_EPOCH":"3566","SITE":"AFETR","RA_OF_ASC_NODE":"25.3629","ARG_OF_PERICENTER":"102.8836","ELEMENT_SET_NO":"999","MEAN_ANOMALY":"257.2275","INCLINATION":"53.2155","ECCENTRICITY":"0.00010670","COUNTRY_CODE":"US","OBJECT_NAME":"STARLINK-4291","MEAN_MOTION_DOT":"0.00012830","GP_ID":"227007588","MEAN_MOTION":"15.08856778"}];
